[
  {
    "OBJECT_NAME": "HAIYANG-2A",
    "OBJECT_ID": "2011-043A",
    "EPOCH": "2025-06-21T20:11:41.363808",
    "MEAN_MOTION": 13.78818071,
    "ECCENTRICITY": 0.0001305,
    "INCLINATION": 99.332,
    "RA_OF_ASC_NODE": 176.4419,
    "ARG_OF_PERICENTER": 127.5641,
    "MEAN_ANOMALY": 232.5629,
    "EPHEMERIS_TYPE": 0,
    "CLASSIFICATION_TYPE": "U",
    "NORAD_CAT_ID": 37781,
    "ELEMENT_SET_NO": 999,
    "REV_AT_EPOCH": 69727,
    "BSTAR": 5.0313e-05,
    "MEAN_MOTION_DOT": 7e-08,
    "MEAN_MOTION_DDOT": 0
  },
  {
    "OBJECT_NAME": "RASAT",
    "OBJECT_ID": "2011-044D",
    "EPOCH": "2025-06-21T19:17:34.158912",
    "MEAN_MOTION": 14.67601785,
    "ECCENTRICITY": 0.0019452,
    "INCLINATION": 98.0684,
    "RA_OF_ASC_NODE": 264.6513,
    "ARG_OF_PERICENTER": 253.3632,
    "MEAN_ANOMALY": 259.5393,
    "EPHEMERIS_TYPE": 0,
    "CLASSIFICATION_TYPE": "U",
    "NORAD_CAT_ID": 37791,
    "ELEMENT_SET_NO": 999,
    "REV_AT_EPOCH": 74033,
    "BSTAR": 7.2172e-05,
    "MEAN_MOTION_DOT": 3.62e-06,
    "MEAN_MOTION_DDOT": 0
  },
  {
    "OBJECT_NAME": "SRMSAT",
    "OBJECT_ID": "2011-058D",
    "EPOCH": "2025-06-21T21:32:38.598144",
    "MEAN_MOTION": 14.11439679,
    "ECCENTRICITY": 0.0011821,
    "INCLINATION": 19.9724,
    "RA_OF_ASC_NODE": 80.0045,
    "ARG_OF_PERICENTER": 199.8246,
    "MEAN_ANOMALY": 220.832,
    "EPHEMERIS_TYPE": 0,
    "CLASSIFICATION_TYPE": "U",
    "NORAD_CAT_ID": 37841,
    "ELEMENT_SET_NO": 999,
    "REV_AT_EPOCH": 70707,
    "BSTAR": 5.6163e-05,
    "MEAN_MOTION_DOT": 3.68e-06,
    "MEAN_MOTION_DDOT": 0
  },
  {
    "OBJECT_NAME": "PLEIADES 1A",
    "OBJECT_ID": "2011-076F",
    "EPOCH": "2025-06-21T20:16:08.502240",
    "MEAN_MOTION": 14.58561334,
    "ECCENTRICITY": 0.0001439,
    "INCLINATION": 98.1981,
    "RA_OF_ASC_NODE": 248.1123,
    "ARG_OF_PERICENTER": 107.503,
    "MEAN_ANOMALY": 28.7697,
    "EPHEMERIS_TYPE": 0,
    "CLASSIFICATION_TYPE": "U",
    "NORAD_CAT_ID": 38012,
    "ELEMENT_SET_NO": 999,
    "REV_AT_EPOCH": 71947,
    "BSTAR": 5.6873e-05,
    "MEAN_MOTION_DOT": 2.19e-06,
    "MEAN_MOTION_DDOT": 0
  },
  {
    "OBJECT_NAME": "ZIYUAN 1-02C (ZY 1-02C)",
    "OBJECT_ID": "2011-079A",
    "EPOCH": "2025-06-21T20:45:00.967392",
    "MEAN_MOTION": 14.37781233,
    "ECCENTRICITY": 0.0005411,
    "INCLINATION": 98.4529,
    "RA_OF_ASC_NODE": 241.8927,
    "ARG_OF_PERICENTER": 312.5461,
    "MEAN_ANOMALY": 158.8435,
    "EPHEMERIS_TYPE": 0,
    "CLASSIFICATION_TYPE": "U",
    "NORAD_CAT_ID": 38038,
    "ELEMENT_SET_NO": 999,
    "REV_AT_EPOCH": 70747,
    "BSTAR": 0.00011993,
    "MEAN_MOTION_DOT": 3.18e-06,
    "MEAN_MOTION_DDOT": 0
  },
  {
    "OBJECT_NAME": "ZIYUAN 3-1 (ZY 3-1)",
    "OBJECT_ID": "2012-001A",
    "EPOCH": "2025-06-21T20:12:09.269280",
    "MEAN_MOTION": 15.5325635,
    "ECCENTRICITY": 0.0002202,
    "INCLINATION": 97.1986,
    "RA_OF_ASC_NODE": 237.4923,
    "ARG_OF_PERICENTER": 211.2061,
    "MEAN_ANOMALY": 148.9062,
    "EPHEMERIS_TYPE": 0,
    "CLASSIFICATION_TYPE": "U",
    "NORAD_CAT_ID": 38046,
    "ELEMENT_SET_NO": 999,
    "REV_AT_EPOCH": 74793,
    "BSTAR": 0.00027404,
    "MEAN_MOTION_DOT": 0.00017163,
    "MEAN_MOTION_DDOT": 0
  },
  {
    "OBJECT_NAME": "ARIRANG-3 (KOMPSAT-3)",
    "OBJECT_ID": "2012-025B",
    "EPOCH": "2025-06-21T20:27:01.542816",
    "MEAN_MOTION": 14.61434113,
    "ECCENTRICITY": 0.000663,
    "INCLINATION": 98.3068,
    "RA_OF_ASC_NODE": 126.4621,
    "ARG_OF_PERICENTER": 138.1268,
    "MEAN_ANOMALY": 222.044,
    "EPHEMERIS_TYPE": 0,
    "CLASSIFICATION_TYPE": "U",
    "NORAD_CAT_ID": 38338,
    "ELEMENT_SET_NO": 999,
    "REV_AT_EPOCH": 69879,
    "BSTAR": 7.5249e-05,
    "MEAN_MOTION_DOT": 3.25e-06,
    "MEAN_MOTION_DDOT": 0
  },
  {
    "OBJECT_NAME": "EXACTVIEW-1 (ADS-1B)",
    "OBJECT_ID": "2012-039C",
    "EPOCH": "2025-06-21T05:48:44.405568",
    "MEAN_MOTION": 14.24821354,
    "ECCENTRICITY": 0.0011809,
    "INCLINATION": 98.9538,
    "RA_OF_ASC_NODE": 277.1035,
    "ARG_OF_PERICENTER": 128.8195,
    "MEAN_ANOMALY": 231.404,
    "EPHEMERIS_TYPE": 0,
    "CLASSIFICATION_TYPE": "U",
    "NORAD_CAT_ID": 38709,
    "ELEMENT_SET_NO": 999,
    "REV_AT_EPOCH": 67130,
    "BSTAR": 5.3905e-05,
    "MEAN_MOTION_DOT": 8e-07,
    "MEAN_MOTION_DDOT": 0
  },
  {
    "OBJECT_NAME": "SPOT 6",
    "OBJECT_ID": "2012-047A",
    "EPOCH": "2025-06-21T20:02:12.237504",
    "MEAN_MOTION": 14.58568283,
    "ECCENTRICITY": 0.0001402,
    "INCLINATION": 98.177,
    "RA_OF_ASC_NODE": 240.5875,
    "ARG_OF_PERICENTER": 107.5005,
    "MEAN_ANOMALY": 252.6348,
    "EPHEMERIS_TYPE": 0,
    "CLASSIFICATION_TYPE": "U",
    "NORAD_CAT_ID": 38755,
    "ELEMENT_SET_NO": 999,
    "REV_AT_EPOCH": 68055,
    "BSTAR": 5.8969e-05,
    "MEAN_MOTION_DOT": 2.29e-06,
    "MEAN_MOTION_DDOT": 0
  },
  {
    "OBJECT_NAME": "PLEIADES 1B",
    "OBJECT_ID": "2012-068A",
    "EPOCH": "2025-06-21T18:48:58.308480",
    "MEAN_MOTION": 14.58554666,
    "ECCENTRICITY": 0.0001433,
    "INCLINATION": 98.1953,
    "RA_OF_ASC_NODE": 247.9948,
    "ARG_OF_PERICENTER": 99.0041,
    "MEAN_ANOMALY": 261.132,
    "EPHEMERIS_TYPE": 0,
    "CLASSIFICATION_TYPE": "U",
    "NORAD_CAT_ID": 39019,
    "ELEMENT_SET_NO": 999,
    "REV_AT_EPOCH": 66831,
    "BSTAR": 5.8508e-05,
    "MEAN_MOTION_DOT": 2.26e-06,
    "MEAN_MOTION_DDOT": 0
  },
  {
    "OBJECT_NAME": "GOKTURK 2",
    "OBJECT_ID": "2012-073A",
    "EPOCH": "2025-06-21T20:43:10.720992",
    "MEAN_MOTION": 14.75015994,
    "ECCENTRICITY": 0.0002135,
    "INCLINATION": 97.7095,
    "RA_OF_ASC_NODE": 22.9098,
    "ARG_OF_PERICENTER": 82.5922,
    "MEAN_ANOMALY": 277.553,
    "EPHEMERIS_TYPE": 0,
    "CLASSIFICATION_TYPE": "U",
    "NORAD_CAT_ID": 39030,
    "ELEMENT_SET_NO": 999,
    "REV_AT_EPOCH": 67141,
    "BSTAR": 6.0115e-05,
    "MEAN_MOTION_DOT": 3.57e-06,
    "MEAN_MOTION_DDOT": 0
  },
  {
    "OBJECT_NAME": "LANDSAT 8",
    "OBJECT_ID": "2013-008A",
    "EPOCH": "2025-06-21T18:50:01.728672",
    "MEAN_MOTION": 14.57102858,
    "ECCENTRICITY": 0.0001424,
    "INCLINATION": 98.2254,
    "RA_OF_ASC_NODE": 243.2109,
    "ARG_OF_PERICENTER": 91.6705,
    "MEAN_ANOMALY": 268.4657,
    "EPHEMERIS_TYPE": 0,
    "CLASSIFICATION_TYPE": "U",
    "NORAD_CAT_ID": 39084,
    "ELEMENT_SET_NO": 999,
    "REV_AT_EPOCH": 65723,
    "BSTAR": 6.4842e-05,
    "MEAN_MOTION_DOT": 2.47e-06,
    "MEAN_MOTION_DDOT": 0
  },
  {
    "OBJECT_NAME": "SARAL",
    "OBJECT_ID": "2013-009A",
    "EPOCH": "2025-06-21T13:16:02.047872",
    "MEAN_MOTION": 14.32685875,
    "ECCENTRICITY": 6.81e-05,
    "INCLINATION": 98.5533,
    "RA_OF_ASC_NODE": 358.738,
    "ARG_OF_PERICENTER": 280.6712,
    "MEAN_ANOMALY": 79.4395,
    "EPHEMERIS_TYPE": 0,
    "CLASSIFICATION_TYPE": "U",
    "NORAD_CAT_ID": 39086,
    "ELEMENT_SET_NO": 999,
    "REV_AT_EPOCH": 64396,
    "BSTAR": 4.7249e-05,
    "MEAN_MOTION_DOT": 8.5e-07,
    "MEAN_MOTION_DDOT": 0
  },
  {
    "OBJECT_NAME": "GAOFEN-1",
    "OBJECT_ID": "2013-018A",
    "EPOCH": "2025-06-21T21:02:11.556960",
    "MEAN_MOTION": 14.76479063,
    "ECCENTRICITY": 0.0017121,
    "INCLINATION": 97.9497,
    "RA_OF_ASC_NODE": 246.4057,
    "ARG_OF_PERICENTER": 351.5267,
    "MEAN_ANOMALY": 8.5651,
    "EPHEMERIS_TYPE": 0,
    "CLASSIFICATION_TYPE": "U",
    "NORAD_CAT_ID": 39150,
    "ELEMENT_SET_NO": 999,
    "REV_AT_EPOCH": 65511,
    "BSTAR": 7.4734e-05,
    "MEAN_MOTION_DOT": 4.7e-06,
    "MEAN_MOTION_DDOT": 0
  }
]