HAIYANG-2A              
1 37781U 11043A   25172.84145097  .00000007  00000+0  50313-4 0  9992
2 37781  99.3320 176.4419 0001305 127.5641 232.5629 13.78818071697275
RASAT                   
1 37791U 11044D   25172.80386758  .00000362  00000+0  72172-4 0  9992
2 37791  98.0684 264.6513 0019452 253.3632 259.5393 14.67601785740334
SRMSAT                  
1 37841U 11058D   25172.89766896  .00000368  00000+0  56163-4 0  9995
2 37841  19.9724  80.0045 0011821 199.8246 220.8320 14.11439679707079
PLEIADES 1A             
1 38012U 11076F   25172.84454285  .00000219  00000+0  56873-4 0  9990
2 38012  98.1981 248.1123 0001439 107.5030  28.7697 14.58561334719473
ZIYUAN 1-02C (ZY 1-02C) 
1 38038U 11079A   25172.86459453  .00000318  00000+0  11993-3 0  9998
2 38038  98.4529 241.8927 0005411 312.5461 158.8435 14.37781233707475
ZIYUAN 3-1 (ZY 3-1)     
1 38046U 12001A   25172.84177395  .00017163  00000+0  27404-3 0  9993
2 38046  97.1986 237.4923 0002202 211.2061 148.9062 15.53256350747937
ARIRANG-3 (KOMPSAT-3)   
1 38338U 12025B   25172.85210119  .00000325  00000+0  75249-4 0  9999
2 38338  98.3068 126.4621 0006630 138.1268 222.0440 14.61434113698798
EXACTVIEW-1 (ADS-1B)    
1 38709U 12039C   25172.24218062  .00000080  00000+0  53905-4 0  9997
2 38709  98.9538 277.1035 0011809 128.8195 231.4040 14.24821354671304
SPOT 6                  
1 38755U 12047A   25172.83486386  .00000229  00000+0  58969-4 0  9998
2 38755  98.1770 240.5875 0001402 107.5005 252.6348 14.58568283680552
PLEIADES 1B             
1 39019U 12068A   25172.78400820  .00000226  00000+0  58508-4 0  9994
2 39019  98.1953 247.9948 0001433  99.0041 261.1320 14.58554666668315
GOKTURK 2               
1 39030U 12073A   25172.86331853  .00000357  00000+0  60115-4 0  9993
2 39030  97.7095  22.9098 0002135  82.5922 277.5530 14.75015994671416
LANDSAT 8               
1 39084U 13008A   25172.78474223  .00000247  00000+0  64842-4 0  9990
2 39084  98.2254 243.2109 0001424  91.6705 268.4657 14.57102858657238
SARAL                   
1 39086U 13009A   25172.55280148  .00000085  00000+0  47249-4 0  9991
2 39086  98.5533 358.7380 0000681 280.6712  79.4395 14.32685875643960
GAOFEN-1                
1 39150U 13018A   25172.87652265  .00000470  00000+0  74734-4 0  9998
2 39150  97.9497 246.4057 0017121 351.5267   8.5651 14.76479063655114
